OBJECT_NAME,OBJECT_ID,EPOCH,MEAN_MOTION,ECCENTRICITY,INCLINATION,RA_OF_ASC_NODE,ARG_OF_PERICENTER,MEAN_ANOMALY,EPHEMERIS_TYPE,CLASSIFICATION_TYPE,NORAD_CAT_ID,ELEMENT_SET_NO,REV_AT_EPOCH,BSTAR,MEAN_MOTION_DOT,MEAN_MOTION_DDOT
IRIDIUM 138,2017-083B,2026-07-12T18:46:03.171360,14.34218101,.000206,86.3998,311.0154,91.9407,268.2025,0,U,43071,999,44780,.43198E-4,.141E-5,0
IRIDIUM 116,2017-083C,2026-07-12T07:57:35.036928,14.34217071,.00023912,86.3987,311.4902,99.4154,260.7312,0,U,43072,999,44777,.33074261E-4,.112E-5,0
IRIDIUM 130,2017-083D,2026-07-12T18:55:11.398368,14.34217359,.0002212,86.3992,311.5770,100.9567,259.1878,0,U,43073,999,44778,.40029E-4,.132E-5,0
IRIDIUM 151,2017-083E,2026-07-12T18:18:39.242016,14.34217673,.0002236,86.3986,311.3680,95.4256,264.7195,0,U,43074,999,44780,.45426E-4,.147E-5,0
IRIDIUM 134,2017-083F,2026-07-12T19:13:27.187104,14.34218168,.0002193,86.3986,311.3605,95.4836,264.6610,0,U,43075,999,44777,.38282E-4,.127E-5,0
IRIDIUM 137,2017-083G,2026-07-12T17:51:15.324768,14.34218045,.0002658,86.3988,311.4777,94.1760,265.9740,0,U,43076,999,44783,.3916E-4,.129E-5,0
IRIDIUM 141,2017-083H,2026-07-12T19:22:35.117760,14.34217747,.000215,86.3984,311.2803,93.1423,267.0019,0,U,43077,999,44784,.45664E-4,.148E-5,0
IRIDIUM 153,2017-083J,2026-07-12T18:13:43.413600,14.34217657,.0002115,86.3960,279.7801,94.3314,265.8123,0,U,43078,999,44894,.1365E-4,.58E-6,0
IRIDIUM 131,2017-083K,2026-07-12T19:04:19.278912,14.34217655,.0002256,86.3989,311.4731,92.9329,267.2125,0,U,43079,999,44777,.10661E-4,.5E-6,0
IRIDIUM 144,2018-030A,2026-07-12T18:22:51.441024,14.34217750,.000237,86.3957,279.7059,98.0260,262.1205,0,U,43249,999,43380,.12518E-4,.55E-6,0
IRIDIUM 149,2018-030B,2026-07-12T18:31:59.460672,14.34217836,.000225,86.3958,279.6700,93.4321,266.7132,0,U,43250,999,43382,.33394E-4,.113E-5,0
IRIDIUM 157,2018-030C,2026-07-12T18:59:23.654400,14.34217505,.0002252,86.3962,279.7159,94.1022,266.0431,0,U,43251,999,43380,.42894E-4,.14E-5,0
IRIDIUM 140,2018-030D,2026-07-12T17:46:19.608672,14.34217052,.0002232,86.3960,279.7497,95.7422,264.4028,0,U,43252,999,43385,.46127E-4,.149E-5,0
IRIDIUM 145,2018-030E,2026-07-12T17:28:03.302400,14.34217167,.0002473,86.3959,279.7269,100.6657,259.4817,0,U,43253,999,43378,.41833E-4,.137E-5,0
IRIDIUM 146,2018-030F,2026-07-12T18:41:07.412064,14.34217183,.0002382,86.3960,279.7181,97.0448,263.1019,0,U,43254,999,43380,.36543E-5,.3E-6,0
IRIDIUM 148,2018-030G,2026-07-12T17:55:27.706080,14.34217473,.0002347,86.3962,279.7747,94.3006,265.8458,0,U,43255,999,43383,.45307E-4,.147E-5,0
IRIDIUM 142,2018-030H,2026-07-12T18:50:15.467136,14.34217992,.0002395,86.3955,279.6471,97.8427,262.3041,0,U,43256,999,43380,.34664E-4,.117E-5,0
IRIDIUM 150,2018-030J,2026-07-12T18:04:35.113152,14.34216323,.0002138,86.3958,279.7775,95.5373,264.6066,0,U,43257,999,43382,-.83744E-4,-.215E-5,0
IRIDIUM 143,2018-030K,2026-07-12T17:37:11.481888,14.34217359,.0002315,86.3963,279.8786,96.3911,263.7548,0,U,43258,999,43375,.18596E-4,.72E-6,0
IRIDIUM 161,2018-047C,2026-07-11T03:46:43.203072,14.43284936,.00023067,86.4467,78.4474,78.8180,281.3280,0,U,43478,999,42859,.45078032E-4,.172E-5,0
IRIDIUM 152,2018-047D,2026-07-12T18:38:22.547904,14.34219612,.0002135,86.3939,77.6313,82.7944,277.3495,0,U,43479,999,42615,.45304E-4,.147E-5,0
IRIDIUM 147,2018-047E,2026-07-12T17:07:02.157888,14.34217360,.0002269,86.3940,77.6635,88.3158,271.8298,0,U,43480,999,42614,.42503E-4,.139E-5,0
IRIDIUM 110,2018-047F,2026-07-12T17:16:10.324416,14.34217825,.0002156,86.3945,77.7536,76.2175,283.9261,0,U,43481,999,42613,.39865E-4,.131E-5,0
IRIDIUM 162,2018-047G,2026-07-10T02:40:06.655296,14.43283456,.00021871,86.4467,78.7759,84.2783,275.8667,0,U,43482,999,42843,.50126108E-4,.189E-5,0
IRIDIUM 160,2018-061A,2026-07-12T15:58:10.300800,14.34216282,.0002212,86.3941,46.1403,86.0889,274.0559,0,U,43569,999,41702,.30692E-4,.106E-5,0
IRIDIUM 166,2018-061B,2026-07-11T12:06:46.347840,14.34217869,.00022602,86.3940,46.5761,89.6407,270.5047,0,U,43570,999,41688,.3931712E-5,.31E-6,0
IRIDIUM 158,2018-061C,2026-07-12T15:49:02.485920,14.34217295,.0002058,86.3939,46.1029,86.3743,273.7688,0,U,43571,999,41701,.1007E-4,.48E-6,0
IRIDIUM 165,2018-061D,2026-07-12T13:04:38.438976,14.34217303,.00022661,86.3942,46.1976,90.8182,269.3273,0,U,43572,999,41702,.25565263E-4,.91E-6,0
IRIDIUM 155,2018-061E,2026-07-12T15:30:46.448352,14.34217140,.0002091,86.3939,46.0231,88.8126,271.3309,0,U,43573,999,41700,.16671E-4,.66E-6,0
IRIDIUM 154,2018-061F,2026-07-12T13:22:54.403104,14.34217689,.00023063,86.3940,46.1951,90.0128,270.1332,0,U,43574,999,41704,.43477038E-4,.142E-5,0
IRIDIUM 163,2018-061G,2026-07-12T16:16:26.418720,14.34217554,.0002157,86.3937,46.0591,85.4739,274.6703,0,U,43575,999,41703,.29558E-4,.103E-5,0
